OBJECTID,FACILITY_INTERNAL_ID,FACILITY_NAME,ADDRESS,CITY,STATE,ZIP,ZIP_4,LAT,LON,STATE_FIPS,COUNTY,COUNTY_FIPS,TYPE_DESC,SUB_TYPE_DESC,TYPE_CODE,FACILITY_TYPE_CODE,ASPEN_FACILITY_ID,Field18,Field19,Field20
1,2398,ST AGNES HOSPITAL ADULT DAY SV,420 E Merrill Ave,Fond Du Lac,WI,54935,3667,43.78074,-88.43096,55,Fond Du Lac,55039,ADULT DAY CARE CENTER,ADULT DAY CARE CENTER,3,31,ADC85,,,
2,2695,GOLDEN CARE ADULT DAY CENTER,N8053 State Road 33,Beaver Dam,WI,53916,9762,43.486111,-88.835205,55,Dodge,55027,ADULT DAY CARE CENTER,ADULT DAY CARE CENTER,3,31,ADC41,,,
3,7117,CARE COVE ADULT DAY CARE,620 Garfield Ave,Viroqua,WI,54665,1957,43.550585,-90.892998,55,Vernon,55123,ADULT DAY CARE CENTER,ADULT DAY CARE CENTER,3,31,ADC12,,,
4,7118,CARING PLACE (THE),810 N East Ave,Waukesha,WI,53186,4808,43.010954,-88.226933,55,Waukesha,55133,ADULT DAY CARE CENTER,ADULT DAY CARE CENTER,3,31,ADC13,,,
5,7120,CATHOLIC CHARITIES ADULT DAY,1919 N 60th St,Milwaukee,WI,53208,1639,43.05607,-87.98812,55,Milwaukee,55079,ADULT DAY CARE CENTER,ADULT DAY CARE CENTER,3,31,ADC15,,,
6,7125,CLEMENT MANOR ADULT DAY SVCS,3939 S 92nd St,Greenfield,WI,53228,2140,42.972232,-88.029519,55,Milwaukee,55079,ADULT DAY CARE CENTER,ADULT DAY CARE CENTER,3,31,ADC21,,,
7,7126,COLONIAL CLUB SENIOR ACTIVITY CENTER,301 Blankenheim Ln,Sun Prairie,WI,53590,2373,43.183127,-89.205097,55,Dane,55025,ADULT DAY CARE CENTER,ADULT DAY CARE CENTER,3,31,ADC22,,,
8,7128,CURATIVE SENIOR CARE CENTER,149 Wisconsin Ave,Waukesha,WI,53186,4924,43.009558,-88.228828,55,Waukesha,55133,ADULT DAY CARE CENTER,ADULT DAY CARE CENTER,3,31,ADC24,,,
9,7130,DAYBREAK II,154 Memorial Dr,Barron,WI,54812,1639,45.39875,-91.841261,55,Barron,55005,ADULT DAY CARE CENTER,ADULT DAY CARE CENTER,3,31,ADC26,,,
10,7132,DAYBREAK I,12 W Humbird St,Rice Lake,WI,54868,1735,45.505011,-91.734617,55,Barron,55005,ADULT DAY CARE CENTER,ADULT DAY CARE CENTER,3,31,ADC28,,,
11,7137,LSS ADULT DAY SERVICE,140 N 7th Ave,West Bend,WI,53095,3200,43.424144,-88.185357,55,Washington,55131,ADULT DAY CARE CENTER,ADULT DAY CARE CENTER,3,31,ADC34,,,
12,7141,GRACE ADULT DAY SERVICES - ALTOONA,2441 New Pine Dr,Altoona,WI,54720,3300,44.807978,-91.451011,55,Eau Claire,55035,ADULT DAY CARE CENTER,ADULT DAY CARE CENTER,3,31,ADC4,,,
13,7146,LSS GREATER MENOMONEE FALLS ADC,W180N7863 Town Hall Rd,Menomonee Falls,WI,53051,4015,43.160219,-88.135322,55,Waukesha,55133,ADULT DAY CARE CENTER,ADULT DAY CARE CENTER,3,31,ADC45,,,
14,7148,TROSTEN HAUS,1223 Madison St,Beaver Dam,WI,53916,2629,43.438518,-88.859629,55,Dodge,55027,ADULT DAY CARE CENTER,ADULT DAY CARE CENTER,3,31,ADC47,,,
15,7149,HAND IN HAND ADULT DAY CENTER,2227 4th St,Monroe,WI,53566,1237,42.610003,-89.631394,55,Green,55045,ADULT DAY CARE CENTER,ADULT DAY CARE CENTER,3,31,ADC48,,,
16,7156,UNITED COMMUNITY CENTER ADC,1028 S 9th St,Milwaukee,WI,53204,1335,43.020542,-87.921503,55,Milwaukee,55079,ADULT DAY CARE CENTER,ADULT DAY CARE CENTER,3,31,ADC57,,,
17,7159,ALMOST HOME ADULT DAY CENTER,1181 4th Ave N,Park Falls,WI,54552,1732,45.946714,-90.463822,55,Price,55099,ADULT DAY CARE CENTER,ADULT DAY CARE CENTER,3,31,ADC6,,,
18,7160,LUTHER MANOR ADULT DAY SERVICE,4545 N 92nd St,Milwaukee,WI,53225,4807,43.100959,-88.030113,55,Milwaukee,55079,ADULT DAY CARE CENTER,ADULT DAY CARE CENTER,3,31,ADC60,,,
19,7162,LUTHERAN HOME ADULT DAY SERVICES,7500 W North Ave,Wauwatosa,WI,53213,1717,43.061626,-88.006113,55,Milwaukee,55079,ADULT DAY CARE CENTER,ADULT DAY CARE CENTER,3,31,ADC62,,,
20,7164,MERIT CENTRE NORTH,1020 Windsor St,La Crosse,WI,54603,2599,43.839024,-91.241362,55,La Crosse,55063,ADULT DAY CARE CENTER,ADULT DAY CARE CENTER,3,31,ADC64,,,
21,7165,MERIT CENTRE SOUTH,3900 East Ave S,La Crosse,WI,54601,7212,43.769665,-91.217552,55,La Crosse,55063,ADULT DAY CARE CENTER,ADULT DAY CARE CENTER,3,31,ADC65,,,
22,7166,GLEN ADULT DAY CENTER (THE),1281 W Main St,Whitewater,WI,53190,1690,42.83332,-88.756323,55,Walworth,55127,ADULT DAY CARE CENTER,ADULT DAY CARE CENTER,3,31,ADC66,,,
23,7169,OLDER AMERICANS PROGRAM,2900 Curry Ln PO Box 8027,Green Bay,WI,54308,8027,44.523222,-87.934081,55,Brown,55009,ADULT DAY CARE CENTER,ADULT DAY CARE CENTER,3,31,ADC69,,,
24,7173,ADULT DAY CENTER OF PORTAGE COUNTY,1519 Water St,Stevens Point,WI,54481,3548,44.519591,-89.58224,55,Portage,55097,ADULT DAY CARE CENTER,ADULT DAY CARE CENTER,3,31,ADC74,,,
25,7176,ASPIRUS PLEASANT VIEW REGENCY ADULT DAY CTR,615 Peterson Ave,Phillips,WI,54555,1452,45.682012,-90.388528,55,Price,55099,ADULT DAY CARE CENTER,ADULT DAY CARE CENTER,3,31,ADC78,,,
26,7181,SHAWANO OLDER AMERICANS CLUB,225 S Main St,Shawano,WI,54166,2745,44.779306,-88.609935,55,Shawano,55115,ADULT DAY CARE CENTER,ADULT DAY CARE CENTER,3,31,ADC82,,,
27,7184,ST ANN CENTER FOR INTERGENERATIONAL CARE,2801 E Morgan Ave,Milwaukee,WI,53207,3771,42.980695,-87.874813,55,Milwaukee,55079,ADULT DAY CARE CENTER,ADULT DAY CARE CENTER,3,31,ADC86,,,
28,7186,SSM HEALTH ADULT DAY HEALTH CENTER,2440 Atwood Ave,Madison,WI,53704,5605,43.09475,-89.34554,55,Dane,55025,ADULT DAY CARE CENTER,ADULT DAY CARE CENTER,3,31,ADC88,,,
29,7197,WILLOW RIDGE ADULT DAY CARE I,W4266 County Rd N # X,Owen,WI,54460,8505,44.945902,-90.524275,55,Clark,55019,ADULT DAY CARE CENTER,ADULT DAY CARE CENTER,3,31,ADC98,,,
30,7198,WILLOW RIDGE ADULT DAY CARE II,W4266 County Rd N # X,Owen,WI,54460,8505,44.945902,-90.524275,55,Clark,55019,ADULT DAY CARE CENTER,ADULT DAY CARE CENTER,3,31,ADC99,,,
31,9100,JEWISH HOME & CARE CENTER ADULT DAY CENTER,1414 N Prospect Ave,Milwaukee,WI,53202,3018,43.04824,-87.89489,55,Milwaukee,55079,ADULT DAY CARE CENTER,ADULT DAY CARE CENTER,3,31,ADC102,,,
32,14632,ST GABRIELS CHURCH OF GOD IN CHRIST,5363 N 37th St,Milwaukee,WI,53209,4729,43.115313,-87.959141,55,Milwaukee,55079,ADULT DAY CARE CENTER,ADULT DAY CARE CENTER,3,31,ADC115,,,
33,27724,CARING TREE ADULT CENTER (THE),512 Caldwell Ave,Oconto Falls,WI,54154,1138,44.877021,-88.140515,55,Oconto,55083,ADULT DAY CARE CENTER,ADULT DAY CARE CENTER,3,31,ADC202,,,
34,39999,ALZHEIMERS DAY RESPITE PROGRAM,1790 Scribner St,Spooner,WI,54801,1172,45.837029,-91.887156,55,Washburn,55129,ADULT DAY CARE CENTER,ADULT DAY CARE CENTER,3,31,ADC206,,,
35,55144,ST PAUL ELDER SERVICES ADC,316 E 14th St,Kaukauna,WI,54130,3304,44.26877,-88.27173,55,Outagamie,55087,ADULT DAY CARE CENTER,ADULT DAY CARE CENTER,3,31,ADC221,,,
36,74687,PARK PLACE ADULT DAY SERVICES,220 3rd Ave S,Wisconsin Rapids,WI,54495,2742,44.392547,-89.830279,55,Wood,55141,ADULT DAY CARE CENTER,ADULT DAY CARE CENTER,3,31,ADC140,,,
37,124638,ALEXIAN VILLAGE ADULT DAY CARE GRANDVIEW ROOM,9225 N 76th St,Milwaukee,WI,53223,1058,43.185943,-88.005625,55,Milwaukee,55079,ADULT DAY CARE CENTER,ADULT DAY CARE CENTER,3,31,ADC141,,,
38,129612,OREGON AREA SENIOR CENTER ADULT DAY PROGRAM,219 Park St,Oregon,WI,53575,1543,43.045101,-87.948466,55,Dane,55025,ADULT DAY CARE CENTER,ADULT DAY CARE CENTER,3,31,ADC51,,,
39,135094,ALZHEIMERS ADULT DAY PROGRAM,1538 Western Ave,Green Bay,WI,54303,2214,44.526328,-88.060334,55,Brown,55009,ADULT DAY CARE CENTER,ADULT DAY CARE CENTER,3,31,ADC1147,,,
40,152167,MARSHFIELD AREA RESPITE CARE CENTER,205 E 3rd St,Marshfield,WI,54449,3708,44.664518,-90.173045,55,Wood,55141,ADULT DAY CARE CENTER,ADULT DAY CARE CENTER,3,31,ADC260,,,
41,152704,ADULT DAY SERVICES LIVING ENVIRONMENTAL FOUNDATION,220 N Oakridge Ct Ste B,Wautoma,WI,54982,8405,44.080168,-89.30134,55,Waushara,55137,ADULT DAY CARE CENTER,ADULT DAY CARE CENTER,3,31,ADC1148,,,
42,155258,CAPABILITIES,N2489 Wenham Road PO Box 84,Fort Atkinson,WI,53538,84,42.930358,-88.754838,55,Jefferson,55055,ADULT DAY CARE CENTER,ADULT DAY CARE CENTER,3,31,ADC400,,,
43,162122,COMPANION DAY SERVICES,905 Tiny Tigers Ct,Marshfield,WI,54449,3069,44.671569,-90.158333,55,Wood,55141,ADULT DAY CARE CENTER,ADULT DAY CARE CENTER,3,31,ADC1150,,,
44,171324,EASTER SEALS SOUTHEAST WI ADULT DAY SERV PROG,7111 W Center St,Wauwatosa,WI,53213,1124,43.067811,-88.001364,55,Milwaukee,55079,ADULT DAY CARE CENTER,ADULT DAY CARE CENTER,3,31,ADC6025,,,
45,195997,PASTIME CLUB INC,7937 US Highway 51 S,Minocqua,WI,54548,9145,45.848208,-89.705405,55,Oneida,55085,ADULT DAY CARE CENTER,ADULT DAY CARE CENTER,3,31,ADC1153,,,
46,198934,OPTIONS FOR COMMUNITY GROWTH INC,11823 W Janesville Rd,Hales Corners,WI,53130,2351,42.936183,-88.061433,55,Milwaukee,55079,ADULT DAY CARE CENTER,ADULT DAY CARE CENTER,3,31,ADC6028,,,
47,204781,DISABILITIES UNLIMITED DAY PROGRAM SERVICES,3808 W Elm St,Milwaukee,WI,53209,3031,43.139003,-87.959456,55,Milwaukee,55079,ADULT DAY CARE CENTER,ADULT DAY CARE CENTER,3,31,ADC10673,,,
48,212852,HAVE-A-HEART ADULT DAY CARE,W10356 State Road 29,River Falls,WI,54022,4040,44.818109,-92.653462,55,Pierce,55093,ADULT DAY CARE CENTER,ADULT DAY CARE CENTER,3,31,ADC217,,,
49,212898,HURLBURTS HAVEN,1215 E Prospect St,Durand,WI,54736,1514,44.635044,-91.950843,55,Pepin,55091,ADULT DAY CARE CENTER,ADULT DAY CARE CENTER,3,31,ADC218,,,
50,229484,GRACE ADULT DAY SERVICES-CHIPPEWA FALLS,2050 Cty Tk I,Chippewa Falls,WI,54729,,44.952277,-91.36786,55,Chippewa,55017,ADULT DAY CARE CENTER,ADULT DAY CARE CENTER,3,31,ADC1202,,,
51,238645,KANDU INDUSTRIES INC,1741 Adel St,Janesville,WI,53546,2945,42.653774,-89.017117,55,Rock,55105,ADULT DAY CARE CENTER,ADULT DAY CARE CENTER,3,31,ADC04,,,
52,242021,NEXT STEP IN DAY SERVICES LLC,16208 W Rogers Dr,New Berlin,WI,53151,2247,43.00726,-88.11324,55,Waukesha,55133,ADULT DAY CARE CENTER,ADULT DAY CARE CENTER,3,31,ADC1157,,,
53,246121,EASTER SEALS ADULT DAY SERVICES AT KENOSHA YMCA,7101 53rd St,Kenosha,WI,53144,7848,42.586905,-87.895905,55,Kenosha,55059,ADULT DAY CARE CENTER,ADULT DAY CARE CENTER,3,31,ADC7000,,,
54,280364,GATEWAY ADULT DAY SERVICES,102 E Veterans St,Tomah,WI,54660,3101,44.001378,-90.504021,55,Monroe,55081,ADULT DAY CARE CENTER,ADULT DAY CARE CENTER,3,31,ADC1203,,,
55,289119,GATHERING PLACE (THE),730 County Road Ppp,Sheboygan Falls,WI,53085,1864,43.71746,-87.826484,55,Sheboygan,55117,ADULT DAY CARE CENTER,ADULT DAY CARE CENTER,3,31,ADC1159,,,
56,307198,UNITED ADULT CENTER,1719 Thierer Rd,Madison,WI,53704,3717,43.12225,-89.31129,55,Dane,55025,ADULT DAY CARE CENTER,ADULT DAY CARE CENTER,3,31,ADC0012950,,,
57,307211,HANDISHOP DAY CENTERS,620 Industrial Dr,Sparta,WI,54656,4221,43.938911,-90.828412,55,Monroe,55081,ADULT DAY CARE CENTER,ADULT DAY CARE CENTER,3,31,ADC1207,,,
58,316219,CARE WISCONSIN,2917 International Ln,Madison,WI,53704,3135,43.127765,-89.347566,55,Dane,55025,ADULT DAY CARE CENTER,ADULT DAY CARE CENTER,3,31,ADC0011742,,,
59,316855,HANDS ON DAY CENTER,848 S Military Rd,Fond Du Lac,WI,54935,4764,43.76129,-88.47166,55,Fond Du Lac,55039,ADULT DAY CARE CENTER,ADULT DAY CARE CENTER,3,31,ADC3,,,
60,338760,VIP SERVICES INC,811 E Geneva St,Elkhorn,WI,53121,2305,42.668242,-88.529881,55,Walworth,55127,ADULT DAY CARE CENTER,ADULT DAY CARE CENTER,3,31,ADC0013082,,,
61,351216,CHURCH STREET COMMUNITY CLUB,13197 Church St,Pigeon Falls,WI,54760,,44.423401,-91.208548,55,Trempealeau,55121,ADULT DAY CARE CENTER,ADULT DAY CARE CENTER,3,31,ADC1162,,,
62,351322,ELITE DAY SERVICES LLC,1101 S Grove Ave,Jefferson,WI,53549,2030,42.993549,-88.8106,55,Jefferson,55055,ADULT DAY CARE CENTER,ADULT DAY CARE CENTER,3,31,ADC13519,,,
63,355879,HANDISHOP DAY CENTERS,1411 N Superior Ave,Tomah,WI,54660,1131,44.008874,-90.503713,55,Monroe,55081,ADULT DAY CARE CENTER,ADULT DAY CARE CENTER,3,31,ADC07,,,
64,358433,JOURNEY HOME I,N5668-884 St,Elk Mound,WI,54739,,44.883368,-91.71412,55,Dunn,55033,ADULT DAY CARE CENTER,ADULT DAY CARE CENTER,3,31,ADC1166,,,
65,359492,CROSSROADS ADULT DAY SERVICES,229 Mary St,Mayville,WI,53050,1067,43.498257,-88.557901,55,Dodge,55027,ADULT DAY CARE CENTER,ADULT DAY CARE CENTER,3,31,ADC0013674,,,
66,362780,ST COLETTA OF WI GOLDEN OPTIONS PROGRAM,N4637 Cty Hwy Y,Jefferson,WI,53549,,43.010757,-88.785567,55,Jefferson,55055,ADULT DAY CARE CENTER,ADULT DAY CARE CENTER,3,31,ADC1000,,,
67,365981,NORTHSIDE COMMUNITY CENTER,5660 N Teutonia Ave,Milwaukee,WI,53222,4113,43.120375,-87.949915,55,Milwaukee,55079,ADULT DAY CARE CENTER,ADULT DAY CARE CENTER,3,31,ADC10678,,,
68,366803,MADISON AREA REHABILITATION CENTERS STOUGHTON,932 N Page St,Stoughton,WI,53589,1312,42.926975,-89.223007,55,Dane,55025,ADULT DAY CARE CENTER,ADULT DAY CARE CENTER,3,31,13820,,,
69,372256,ENDEAVORS ADULT DEVELOPMENT CENTER INC,101 150th St,Balsam Lake,WI,54810,8011,45.45268,-92.46931,55,Polk,55095,ADULT DAY CARE CENTER,ADULT DAY CARE CENTER,3,31,ADC0013651,,,
70,377852,JOURNEYS CLUB ADULT DAY CENTER,700 Heritage Rd,Luxemburg,WI,54217,1253,44.552641,-87.69916,55,Kewaunee,55061,ADULT DAY CARE CENTER,ADULT DAY CARE CENTER,3,31,ADC191,,,
71,379058,MEMORY LANE ADULT DAY SERVICES,502 Tower Ave,Superior,WI,54880,1051,46.732195,-92.103374,55,Douglas,55031,ADULT DAY CARE CENTER,ADULT DAY CARE CENTER,3,31,ADC0014085,,,
72,384341,COMMUNITY CARE ADULT DAY HEALTH,1801 Dolphin Dr,Waukesha,WI,53186,1430,43.019067,-88.195911,55,Waukesha,55133,ADULT DAY CARE CENTER,ADULT DAY CARE CENTER,3,31,14189,,,
73,385750,APTITUDES,426 McMillen St,Fort Atkinson,WI,53538,1996,42.933994,-88.827022,55,Jefferson,55055,ADULT DAY CARE CENTER,ADULT DAY CARE CENTER,3,31,14106,,,
74,390415,KAJSIAB SENIOR CENTER,8421 W Villard Ave,Milwaukee,WI,53225,3503,43.111973,-88.016409,55,Milwaukee,55079,ADULT DAY CARE CENTER,ADULT DAY CARE CENTER,3,31,ADC10682,,,
75,390681,MEMORY LANE ADULT DAY SERVICES,623 2nd Ave E,Ashland,WI,54806,3202,46.587901,-90.878588,55,Ashland,55003,ADULT DAY CARE CENTER,ADULT DAY CARE CENTER,3,31,ADC501,,,
76,390683,KINDHEARTED SOCIAL CENTER,101 N Scott St,Merrill,WI,54452,2414,45.18064,-89.68881,55,Lincoln,55069,ADULT DAY CARE CENTER,ADULT DAY CARE CENTER,3,31,ADC502,,,
77,390685,HOMME HEIGHTS ADULT DAY CENTER,2901 N 7th St,Wausau,WI,54403,4219,44.98007,-89.62139,55,Marathon,55073,ADULT DAY CARE CENTER,ADULT DAY CARE CENTER,3,31,ADC503,,,
78,391545,LAKEVIEW NEUROREHAB CENTER INC,1701 Sharp Rd,Waterford,WI,53185,5214,42.738221,-88.167417,55,Racine,55101,ADULT DAY CARE CENTER,ADULT DAY CARE CENTER,3,31,14071,,,
79,399103,HMONG KASHIA DAY CARE,1100 Kane St,La Crosse,WI,54603,2572,43.839351,-91.240338,55,La Crosse,55063,ADULT DAY CARE CENTER,ADULT DAY CARE CENTER,3,31,ADC0013210,,,
80,401636,EASTER SEALS SOUTHEAST WI WEST ALLIS ADS,2222 S 114th St,West Allis,WI,53227,1031,43.003827,-88.05339,55,Milwaukee,55079,ADULT DAY CARE CENTER,ADULT DAY CARE CENTER,3,31,14547,,,
81,402052,GOLDEN BOOMER FAMILY ADULT DAY,1611 Main St,Marinette,WI,54143,1805,45.098253,-87.628553,55,Marinette,55075,ADULT DAY CARE CENTER,ADULT DAY CARE CENTER,3,31,ADC1170,,,
82,410798,NEW HOPE ADULT COMMUNITY CARE CENTER,2433 W Roosevelt Dr Lowr,Milwaukee,WI,53209,6640,43.094922,-87.943121,55,Milwaukee,55079,ADULT DAY CARE CENTER,ADULT DAY CARE CENTER,3,31,14754,,,
83,413122,HMONG ADULTS DAYCARE CENTER LLC,1724 Westgate Rd,Eau Claire,WI,54703,4963,44.816848,-91.537292,55,Eau Claire,55035,ADULT DAY CARE CENTER,ADULT DAY CARE CENTER,3,31,14797,,,
84,443287,LAKE VIEW RECPLEX,9900 Terwall Ter,Pleasant Prairie,WI,53158,2222,42.529048,-87.916097,55,Kenosha,55059,ADULT DAY CARE CENTER,ADULT DAY CARE CENTER,3,31,14605,,,
85,451047,ADULT DAY SERVICES OF WISCONSIN LLC,206 E Lincoln Ave,Milwaukee,WI,53207,1544,43.003125,-87.907772,55,Milwaukee,55079,ADULT DAY CARE CENTER,ADULT DAY CARE CENTER,3,31,14456,,,
86,461596,CAHOOTS ADULT DAY SERVICE LLC,137 N Main St # 147,Amherst,WI,54406,9028,44.451287,-89.284861,55,Portage,55097,ADULT DAY CARE CENTER,ADULT DAY CARE CENTER,3,31,15020,,,
87,464048,CURTIS CENTER,344-346 S Curtis Road,West Allis,WI,53214,1015,43.027963,-88.060633,55,Milwaukee,55079,ADULT DAY CARE CENTER,ADULT DAY CARE CENTER,3,31,15053,,,
88,489675,COULEE REGION ADULT DAY CENTER SPARTA,777 North St,Sparta,WI,54656,1633,43.946745,-90.820412,55,Monroe,55081,ADULT DAY CARE CENTER,ADULT DAY CARE CENTER,3,31,15121,,,
89,494169,WILLIAM LEE ADULT DAY CARE,N4267 Pennington Rd,Prentice,WI,54556,9306,45.526428,-90.395757,55,Price,55099,ADULT DAY CARE CENTER,ADULT DAY CARE CENTER,3,31,15311,,,
90,494558,MCHC SAKINA SENIOR CENTER,803 W Layton Ave,Greenfield,WI,53221,2426,42.956913,-87.922284,55,Milwaukee,55079,ADULT DAY CARE CENTER,ADULT DAY CARE CENTER,3,31,15321,,,
91,496718,PLEASANT STREET CLUB HOUSE,329 N Wisconsin St,Elkhorn,WI,53121,1315,42.67849,-88.543278,55,Walworth,55127,ADULT DAY CARE CENTER,ADULT DAY CARE CENTER,3,31,15385,,,
92,496818,CAHOOTS 2 ADULT DAY SERVICE,1035 Royalton St # 1035 1/2,Waupaca,WI,54981,1623,44.351711,-89.072542,55,Waupaca,55135,ADULT DAY CARE CENTER,ADULT DAY CARE CENTER,3,31,15389,,,
93,498165,MILESTONE SENIOR LIVING ADULT DAY PROGRAM,1870 Market St,Cross Plains,WI,53528,8875,43.111043,-89.661895,55,Dane,55025,ADULT DAY CARE CENTER,ADULT DAY CARE CENTER,3,31,15430,,,
94,500518,NORTH STAR SERVICES INC,450 E North St,Adams,WI,53910,,43.967167,-89.808191,55,Adams,55001,ADULT DAY CARE CENTER,ADULT DAY CARE CENTER,3,31,15496,,,
95,502368,ROSAS COMMUNITY ADULT CENTER,4240 N 78th St,Milwaukee,WI,53222,2030,43.094815,-88.010283,55,Milwaukee,55079,ADULT DAY CARE CENTER,ADULT DAY CARE CENTER,3,31,15540,,,
96,513496,EASTER SEALS WAUKESHA,201 Wisconsin Ave,Waukesha,WI,53186,4926,43.009419,-88.229385,55,Waukesha,55133,ADULT DAY CARE CENTER,ADULT DAY CARE CENTER,3,31,15759,,,
97,514360,ST ANN CENTER FOR INTERGENERATIONAL CARE,2450 W North Ave,Milwaukee,WI,53205,1001,43.060774,-87.943989,55,Milwaukee,55079,ADULT DAY CARE CENTER,ADULT DAY CARE CENTER,3,31,15781,,,
98,520310,BEKUS ADULT DAY PROGRAM LLC,4425 N 63rd St,Milwaukee,WI,53218,5548,43.097894,-87.990975,55,Milwaukee,55079,ADULT DAY CARE CENTER,ADULT DAY CARE CENTER,3,31,15861,,,
99,521021,QUALITY CARE,2051 Mead St,Racine,WI,53403,2640,42.704454,-87.792299,55,Racine,55101,ADULT DAY CARE CENTER,ADULT DAY CARE CENTER,3,31,15901,,,
100,522867,FOUR SEASONS,1326 35th St,Kenosha,WI,53140,5200,42.606529,-87.827047,55,Kenosha,55059,ADULT DAY CARE CENTER,ADULT DAY CARE CENTER,3,31,15934,,,
101,523493,HONEY MIL,2722 W Highland Blvd,Milwaukee,WI,53208,3206,43.045101,-87.948466,55,Milwaukee,55079,ADULT DAY CARE CENTER,ADULT DAY CARE CENTER,3,31,15947,,,
102,529346,REFLECTIONS ADULT DAY CARE LLC,511 Madison Ave,Fort Atkinson,WI,53538,1444,42.932794,-88.844242,55,Jefferson,55055,ADULT DAY CARE CENTER,ADULT DAY CARE CENTER,3,31,11951,,,
103,531613,BETHESDA SENIOR CENTER,2845 W Fond Du Lac Ave,Milwaukee,WI,53210,2628,43.068872,-87.949635,55,Milwaukee,55079,ADULT DAY CARE CENTER,ADULT DAY CARE CENTER,3,31,16110,,,
104,532510,ANOTHER CHANCE 2 ADULT DAY CARE LLC,3916 N 24th Pl,Milwaukee,WI,53206,1421,43.088474,-87.94338,55,Milwaukee,55079,ADULT DAY CARE CENTER,ADULT DAY CARE CENTER,3,31,16132,,,
105,536614,SUNFLOWER COTTAGE,55 W Yew St,Sturgeon Bay,WI,54235,1962,44.816417,-87.386519,55,Door,55029,ADULT DAY CARE CENTER,ADULT DAY CARE CENTER,3,31,16185,,,
106,539155,ANCHORAGE HOMES ADULT DAY CENTER,6435 W Capitol Dr,Milwaukee,WI,53216,2140,43.089639,-87.993071,55,Milwaukee,55079,ADULT DAY CARE CENTER,ADULT DAY CARE CENTER,3,31,16227,,,
107,540058,JAMY PROPERTIESLLC,2010 W Edgerton Ave,Greenfield,WI,53221,3527,42.952374,-87.939605,55,Milwaukee,55079,ADULT DAY CARE CENTER,ADULT DAY CARE CENTER,3,31,16268,,,
108,541486,KINDHEARTED HOME CARE,120 S Mill St,Merrill,WI,54452,2505,45.180042,-89.687515,55,Lincoln,55069,ADULT DAY CARE CENTER,ADULT DAY CARE CENTER,3,31,16327,,,
109,542821,CATHOLIC CHARITIES ADULT DAY CENTER,5401 Fen Oak Dr,Madison,WI,53718,3902,43.056439,-89.287965,55,Dane,55025,ADULT DAY CARE CENTER,ADULT DAY CARE CENTER,3,31,16356,,,
110,545417,LADYSMITH ADULT DAY SERVICES,518 Lake Ave W,Ladysmith,WI,54848,1210,45.464839,-91.107084,55,Rusk,55107,ADULT DAY CARE CENTER,ADULT DAY CARE CENTER,3,31,16417,,,
111,549780,MR ROBERTS ADULT DAY CARE,9183 N 76th St,Milwaukee,WI,53233,1905,43.185161,-88.005933,55,Milwaukee,55079,ADULT DAY CARE CENTER,ADULT DAY CARE CENTER,3,31,16515,,,
112,554437,WILLOW RIDGE ADULT DAY CARE SITE III,237 W 6th St Apt 1,Neillsville,WI,54456,1934,44.560846,-90.59799,55,Clark,55019,ADULT DAY CARE CENTER,ADULT DAY CARE CENTER,3,31,16581,,,
113,557759,HOME AWAY FROM HOME LOVING CARE,1836 N Stevens St,Rhinelander,WI,54501,2161,45.654739,-89.391002,55,Oneida,55085,ADULT DAY CARE CENTER,ADULT DAY CARE CENTER,3,31,16647,,,
114,558765,MANNA HOUSE ADULT DAYCARE II,1034 West Blvd,Racine,WI,53405,2502,42.720411,-87.816473,55,Racine,55101,ADULT DAY CARE CENTER,ADULT DAY CARE CENTER,3,31,16604,,,
115,559114,D&D COMPASSIONATE ACTIVITY COMPANIONS LLC,3611 N Teutonia Ave,Milwaukee,WI,53206,2331,43.083578,-87.935901,55,Milwaukee,55079,ADULT DAY CARE CENTER,ADULT DAY CARE CENTER,3,31,16683,,,
116,559967,UNITED COMMUNITES ADC SERVICES,5330 W Lisbon Ave,Milwaukee,WI,53210,2751,43.065108,-87.980707,55,Milwaukee,55079,ADULT DAY CARE CENTER,ADULT DAY CARE CENTER,3,31,16707,,,
117,560267,ASPIRUS LANGLADE ADULT DAY CENTER,519 Flight Rd,Antigo,WI,54409,9410,45.14737,-89.133133,55,Langlade,55067,ADULT DAY CARE CENTER,ADULT DAY CARE CENTER,3,31,16723,,,
118,561611,BENEVOLENCE ADULT DAY CARE,914 Laurie Dr,Madison,WI,53711,2417,43.045336,-89.493057,55,Dane,55025,ADULT DAY CARE CENTER,ADULT DAY CARE CENTER,3,31,16794,,,
119,562259,ALL DAY ADULT CARE LLC,N4901 Dam Rd,Delavan,WI,53115,2927,42.669456,-88.650514,55,Walworth,55127,ADULT DAY CARE CENTER,ADULT DAY CARE CENTER,3,31,16824,,,
120,562489,COULEE REGION ADULT DAY CENTER,565 Braund St,Onalaska,WI,54650,8556,43.873627,-91.199151,55,La Crosse,55063,ADULT DAY CARE CENTER,ADULT DAY CARE CENTER,3,31,16835,,,
121,565892,HENRIETTE JOHNSON CENTER (THE),5161 N Hopkins St,Milwaukee,WI,53209,5256,43.111095,-87.963489,55,Milwaukee,55079,ADULT DAY CARE CENTER,ADULT DAY CARE CENTER,3,31,16954,,,
122,567969,HONEY MIL WAUKESHA,20711 Watertown Rd,Waukesha,WI,53186,1881,43.037519,-88.172257,55,Waukesha,55133,ADULT DAY CARE CENTER,ADULT DAY CARE CENTER,3,31,17037,,,
123,567989,UNITY ADULT DAY CENTER,120 N Beaumont Rd,Prairie Du Chien,WI,53821,1427,43.052354,-91.146154,55,Crawford,55023,ADULT DAY CARE CENTER,ADULT DAY CARE CENTER,3,31,17038,,,
124,568272,CIRCLE OF FRIENDS ADULT DAY SERVICES,13735 W Capitol Dr,Brookfield,WI,53005,2433,43.08904,-88.08294,55,Waukesha,55133,ADULT DAY CARE CENTER,ADULT DAY CARE CENTER,3,31,17044,,,
125,568661,BROWNS ADULT DAY CENTER LLC,3417 Douglas Ave,Racine,WI,53402,3718,42.761405,-87.801363,55,Racine,55101,ADULT DAY CARE CENTER,ADULT DAY CARE CENTER,3,31,17078,,,
126,570372,KAAK LIVING,5938 N 76th St,Milwaukee,WI,53218,1845,43.125549,-88.005678,55,Milwaukee,55079,ADULT DAY CARE CENTER,ADULT DAY CARE CENTER,3,31,17127,,,
127,571113,1022 CLUB,1022 Sell Dr,Hartford,WI,53027,2620,43.319613,-88.360425,55,Washington,55131,ADULT DAY CARE CENTER,ADULT DAY CARE CENTER,3,31,17170,,,
128,571141,CIRCLE OF FRIENDS ADULT DAY SERVICES,13735 W Capitol Dr,Brookfield,WI,53005,2433,43.08904,-88.08294,55,Waukesha,55133,ADULT DAY CARE CENTER,ADULT DAY CARE CENTER,3,31,17177,,,
129,571186,REMINISCE ADULT DAY SERVICES,442 S Albert Ave Ste A,Reedsburg,WI,53959,1826,43.528245,-90.018638,55,Sauk,55111,ADULT DAY CARE CENTER,ADULT DAY CARE CENTER,3,31,17191,,,
130,571815,ACHIEVEMENTS,1014 Vine St,Union Grove,WI,53182,1330,42.687176,-88.053476,55,Racine,55101,ADULT DAY CARE CENTER,ADULT DAY CARE CENTER,3,31,17229,,,
131,571823,TXHAWB SIAB ADULT DAY CARE LLC,4534 Pawnee Pass,Fitchburg,WI,53711,4712,43.02697,-89.454921,55,Dane,55025,ADULT DAY CARE CENTER,ADULT DAY CARE CENTER,3,31,17230,,,
132,573426,COMMUNITY CARE ADULT DAY PROGRAM MILWAUKEE,3220 W Vliet St,Milwaukee,WI,53208,2453,43.049307,-87.953575,55,Milwaukee,55079,ADULT DAY CARE CENTER,ADULT DAY CARE CENTER,3,31,17313,,,
133,573958,GENERATIONS ADULT DAY CARE,521 N 8th St,Manitowoc,WI,54220,4041,44.098283,-87.657393,55,Manitowoc,55071,ADULT DAY CARE CENTER,ADULT DAY CARE CENTER,3,31,17332,,,
134,574842,LAKEFIELD ADULT DAY CENTER,1193 Lakefield Rd,Grafton,WI,53024,9732,43.293895,-87.924011,55,Ozaukee,55089,ADULT DAY CARE CENTER,ADULT DAY CARE CENTER,3,31,17363,,,
135,575347,ABUNDANT BLESSINGS DAY SERVICE INC,2308 Raymond Ave,Franksville,WI,53126,9746,42.746989,-88.020672,55,Racine,55101,ADULT DAY CARE CENTER,ADULT DAY CARE CENTER,3,31,17399,,,
136,577673,TSWV CHAO VANG CENTER LLC,11010 W Hampton Ave,Milwaukee,WI,53225,3821,43.105204,-88.051365,55,Milwaukee,55079,ADULT DAY CARE CENTER,ADULT DAY CARE CENTER,3,31,17492,,,
137,578440,ISTHMUS EXPRESS LLC,555 Donofrio Dr Ste 85,Fitchburg,WI,53719,2053,43.056744,-89.515837,55,Dane,55025,ADULT DAY CARE CENTER,ADULT DAY CARE CENTER,3,31,17528,,,
138,581119,"GUARDIAN ANGELS ADULT DAY SERVICES, LLC",6816 W Brown Deer Rd,Brown Deer,WI,53223,2102,43.17798,-87.994863,55,Milwaukee,55079,ADULT DAY CARE CENTER,ADULT DAY CARE CENTER,3,31,17621,,,
139,581121,ADULT CENTER FOR ENRICHMENT,4848 S 76th St,Greenfield,WI,53221,4361,42.955887,-88.007267,55,Milwaukee,55079,ADULT DAY CARE CENTER,ADULT DAY CARE CENTER,3,31,17623,,,
140,581123,MENTORS FOR INDEPENDENCE ,3157 S Duluth Ave,Sturgeon Bay,WI,54235,2970,44.824111,-87.398138,55,Door,55029,ADULT DAY CARE CENTER,ADULT DAY CARE CENTER,3,31,17624,,,
141,581405,ANGEL HEARTS ADULT CARE CENTER,6661 W Mill Rd,Milwaukee,WI,53218,1238,43.13387,-87.994556,55,Milwaukee,55079,ADULT DAY CARE CENTER,ADULT DAY CARE CENTER,3,31,17647,,,
142,581869,WOODLAND ADULT DAY CENTER,1400 W Seminary St,Richland Center,WI,53581,2036,44.008874,-90.503713,55,Richland,55103,ADULT DAY CARE CENTER,ADULT DAY CARE CENTER,3,31,17656,,,
143,582605,FRIENDSHIP VILLAGE INC,864 N Lake Ave,Phillips,WI,54555,1508,45.698171,-90.411453,55,Price,55099,ADULT DAY CARE CENTER,ADULT DAY CARE CENTER,3,31,17708,,,
144,582630,DIVINE LIVING ADULT DAY CARE CENTER LLC,6843 W Brown Dr,Brown Deer,WI,53223,2101,43.177061,-87.996124,55,Milwaukee,55079,ADULT DAY CARE CENTER,ADULT DAY CARE CENTER,3,31,17715,,,
145,582844,WELSHS ADULT DAY SERVICES PEACE CENTER,3873 N 15th St Uppr,Milwaukee,WI,53206,2912,43.087305,-87.92995,55,Milwaukee,55079,ADULT DAY CARE CENTER,ADULT DAY CARE CENTER,3,31,17726,,,
146,582872,WELSHS ADULT DAY SERVICES HOPE CENTER,3873 N 15th St Lowr,Milwaukee,WI,53206,2912,43.087305,-87.92995,55,Milwaukee,55079,ADULT DAY CARE CENTER,ADULT DAY CARE CENTER,3,31,17732,,,
147,583917,CM ADULT CARE CENTER,1000 W Wisconsin Ave,Appleton,WI,54914,3552,44.273442,-88.420552,55,Outagamie,55087,ADULT DAY CARE CENTER,ADULT DAY CARE CENTER,3,31,17772,,,
